{
  "type": "FeatureCollection",
  "features": [
    {
      "type": "Feature",
      "properties": {
        "norad_id": 38709,
        "name": "EXACTVIEW-1 (ADS-1B)",
        "group": "resource",
        "lat": 40.89958592000485,
        "lon": -72.67927121429717,
        "alt_km": 812.4166113723531,
        "timestamp": "2025-12-16T23:36:35.841798+00:00",
        "meta_object_name": "EXACTVIEW-1 (ADS-1B)",
        "meta_object_id": "2012-039C",
        "meta_epoch": "2025-12-16T06:06:36.138816",
        "meta_mean_motion": 14.2490943,
        "meta_eccentricity": 0.00104885,
        "meta_inclination": 98.9637,
        "meta_ra_of_asc_node": 98.7184,
        "meta_arg_of_pericenter": 343.9238,
        "meta_mean_anomaly": 16.1606,
        "meta_ephemeris_type": 0,
        "meta_classification_type": "U",
        "meta_norad_cat_id": 38709,
        "meta_element_set_no": 999,
        "meta_rev_at_epoch": 69665,
        "meta_bstar": 7.4367583e-05,
        "meta_mean_motion_dot": 1.27e-06,
        "meta_mean_motion_ddot": 0,
        "tle_line1": "1 38709U 12039C   25350.25458494  .00000127  00000+0  74368-4 0  9999",
        "tle_line2": "2 38709  98.9637  98.7184 0010488 343.9238  16.1606 14.24909430696659"
      },
      "geometry": {
        "type": "Point",
        "coordinates": [
          -72.67927121429717,
          40.89958592000485
        ]
      }
    },
    {
      "type": "Feature",
      "properties": {
        "norad_id": 38755,
        "name": "SPOT 6",
        "group": "resource",
        "lat": -39.0968603593298,
        "lon": 62.383423462301266,
        "alt_km": 704.7559057152339,
        "timestamp": "2025-12-16T23:36:35.841809+00:00",
        "meta_object_name": "SPOT 6",
        "meta_object_id": "2012-047A",
        "meta_epoch": "2025-12-16T07:19:38.078976",
        "meta_mean_motion": 14.58607179,
        "meta_eccentricity": 0.00011865,
        "meta_inclination": 98.1572,
        "meta_ra_of_asc_node": 55.0243,
        "meta_arg_of_pericenter": 99.6981,
        "meta_mean_anomaly": 260.4352,
        "meta_ephemeris_type": 0,
        "meta_classification_type": "U",
        "meta_norad_cat_id": 38755,
        "meta_element_set_no": 999,
        "meta_rev_at_epoch": 70639,
        "meta_bstar": 8.9131368e-05,
        "meta_mean_motion_dot": 3.69e-06,
        "meta_mean_motion_ddot": 0,
        "tle_line1": "1 38755U 12047A   25350.30530184  .00000369  00000+0  89131-4 0  9994",
        "tle_line2": "2 38755  98.1572  55.0243 0001186  99.6981 260.4352 14.58607179706394"
      },
      "geometry": {
        "type": "Point",
        "coordinates": [
          62.383423462301266,
          -39.0968603593298
        ]
      }
    },
    {
      "type": "Feature",
      "properties": {
        "norad_id": 39019,
        "name": "PLEIADES 1B",
        "group": "resource",
        "lat": -37.98044977801071,
        "lon": -122.87916670563862,
        "alt_km": 704.8558281770411,
        "timestamp": "2025-12-16T23:36:35.841819+00:00",
        "meta_object_name": "PLEIADES 1B",
        "meta_object_id": "2012-068A",
        "meta_epoch": "2025-12-16T07:47:38.747328",
        "meta_mean_motion": 14.58556983,
        "meta_eccentricity": 0.00011875,
        "meta_inclination": 98.1792,
        "meta_ra_of_asc_node": 62.9197,
        "meta_arg_of_pericenter": 84.0346,
        "meta_mean_anomaly": 276.0989,
        "meta_ephemeris_type": 0,
        "meta_classification_type": "U",
        "meta_norad_cat_id": 39019,
        "meta_element_set_no": 999,
        "meta_rev_at_epoch": 69419,
        "meta_bstar": 9.4630529e-05,
        "meta_mean_motion_dot": 3.94e-06,
        "meta_mean_motion_ddot": 0,
        "tle_line1": "1 39019U 12068A   25350.32475402  .00000394  00000+0  94631-4 0  9993",
        "tle_line2": "2 39019  98.1792  62.9197 0001187  84.0346 276.0989 14.58556983694190"
      },
      "geometry": {
        "type": "Point",
        "coordinates": [
          -122.87916670563862,
          -37.98044977801071
        ]
      }
    },
    {
      "type": "Feature",
      "properties": {
        "norad_id": 39030,
        "name": "GOKTURK 2",
        "group": "resource",
        "lat": -30.91549647941668,
        "lon": -162.93092010300333,
        "alt_km": 650.7894038684371,
        "timestamp": "2025-12-16T23:36:35.841830+00:00",
        "meta_object_name": "GOKTURK 2",
        "meta_object_id": "2012-073A",
        "meta_epoch": "2025-12-16T07:28:24.163392",
        "meta_mean_motion": 14.75295776,
        "meta_eccentricity": 0.00010931,
        "meta_inclination": 97.6895,
        "meta_ra_of_asc_node": 191.7891,
        "meta_arg_of_pericenter": 105.6309,
        "meta_mean_anomaly": 254.5022,
        "meta_ephemeris_type": 0,
        "meta_classification_type": "U",
        "meta_norad_cat_id": 39030,
        "meta_element_set_no": 999,
        "meta_rev_at_epoch": 69754,
        "meta_bstar": 5.5677586e-05,
        "meta_mean_motion_dot": 3.3e-06,
        "meta_mean_motion_ddot": 0,
        "tle_line1": "1 39030U 12073A   25350.31139078  .00000330  00000+0  55678-4 0  9995",
        "tle_line2": "2 39030  97.6895 191.7891 0001093 105.6309 254.5022 14.75295776697548"
      },
      "geometry": {
        "type": "Point",
        "coordinates": [
          -162.93092010300333,
          -30.91549647941668
        ]
      }
    },
    {
      "type": "Feature",
      "properties": {
        "norad_id": 39084,
        "name": "LANDSAT 8",
        "group": "resource",
        "lat": 6.2227327084620745,
        "lon": 58.09280751187822,
        "alt_km": 704.5240264795184,
        "timestamp": "2025-12-16T23:36:35.841840+00:00",
        "meta_object_name": "LANDSAT 8",
        "meta_object_id": "2013-008A",
        "meta_epoch": "2025-12-16T07:06:02.024064",
        "meta_mean_motion": 14.57117574,
        "meta_eccentricity": 0.00010654,
        "meta_inclination": 98.207,
        "meta_ra_of_asc_node": 58.3168,
        "meta_arg_of_pericenter": 90.6234,
        "meta_mean_anomaly": 269.5086,
        "meta_ephemeris_type": 0,
        "meta_classification_type": "U",
        "meta_norad_cat_id": 39084,
        "meta_element_set_no": 999,
        "meta_rev_at_epoch": 67126,
        "meta_bstar": 9.9568609e-05,
        "meta_mean_motion_dot": 4.03e-06,
        "meta_mean_motion_ddot": 0,
        "tle_line1": "1 39084U 13008A   25350.29585676  .00000403  00000+0  99569-4 0  9997",
        "tle_line2": "2 39084  98.2070  58.3168 0001065  90.6234 269.5086 14.57117574671269"
      },
      "geometry": {
        "type": "Point",
        "coordinates": [
          58.09280751187822,
          6.2227327084620745
        ]
      }
    },
    {
      "type": "Feature",
      "properties": {
        "norad_id": 39086,
        "name": "SARAL",
        "group": "resource",
        "lat": -19.34486257190131,
        "lon": 177.88608456127022,
        "alt_km": 788.6324440084663,
        "timestamp": "2025-12-16T23:36:35.841850+00:00",
        "meta_object_name": "SARAL",
        "meta_object_id": "2013-009A",
        "meta_epoch": "2025-12-16T08:36:59.936256",
        "meta_mean_motion": 14.32758298,
        "meta_eccentricity": 0.00029211,
        "meta_inclination": 98.5502,
        "meta_ra_of_asc_node": 174.2422,
        "meta_arg_of_pericenter": 101.8548,
        "meta_mean_anomaly": 258.2963,
        "meta_ephemeris_type": 0,
        "meta_classification_type": "U",
        "meta_norad_cat_id": 39086,
        "meta_element_set_no": 999,
        "meta_rev_at_epoch": 66942,
        "meta_bstar": 6.0739444e-05,
        "meta_mean_motion_dot": 1.22e-06,
        "meta_mean_motion_ddot": 0,
        "tle_line1": "1 39086U 13009A   25350.35902704  .00000122  00000+0  60739-4 0  9997",
        "tle_line2": "2 39086  98.5502 174.2422 0002921 101.8548 258.2963 14.32758298669421"
      },
      "geometry": {
        "type": "Point",
        "coordinates": [
          177.88608456127022,
          -19.34486257190131
        ]
      }
    },
    {
      "type": "Feature",
      "properties": {
        "norad_id": 39150,
        "name": "GAOFEN-1",
        "group": "resource",
        "lat": 64.56189193095575,
        "lon": 44.52176370143981,
        "alt_km": 628.303291622331,
        "timestamp": "2025-12-16T23:36:35.841860+00:00",
        "meta_object_name": "GAOFEN-1",
        "meta_object_id": "2013-018A",
        "meta_epoch": "2025-12-16T08:40:31.577376",
        "meta_mean_motion": 14.76541206,
        "meta_eccentricity": 0.00183812,
        "meta_inclination": 97.9325,
        "meta_ra_of_asc_node": 60.9567,
        "meta_arg_of_pericenter": 131.8702,
        "meta_mean_anomaly": 228.408,
        "meta_ephemeris_type": 0,
        "meta_classification_type": "U",
        "meta_norad_cat_id": 39150,
        "meta_element_set_no": 999,
        "meta_rev_at_epoch": 68126,
        "meta_bstar": 0.00010773447,
        "meta_mean_motion_dot": 7.02e-06,
        "meta_mean_motion_ddot": 0,
        "tle_line1": "1 39150U 13018A   25350.36147659  .00000702  00000+0  10773-3 0  9996",
        "tle_line2": "2 39150  97.9325  60.9567 0018381 131.8702 228.4080 14.76541206681264"
      },
      "geometry": {
        "type": "Point",
        "coordinates": [
          44.52176370143981,
          64.56189193095575
        ]
      }
    }
  ]
}